CCSDS_OMM_VERS = 2.0
CREATION_DATE  = 
ORIGINATOR     = 

OBJECT_NAME    = STARLINK-36046
OBJECT_ID      = 2025-278V
CENTER_NAME    = EARTH
REF_FRAME      = TEME
TIME_SYSTEM    = UTC
MEAN_ELEMENT_THEORY = SGP/SGP4

EPOCH          = 2025-12-12T05:23:50.616960
MEAN_MOTION    = 15.88887476
ECCENTRICITY   = .00021298
INCLINATION    = 42.9975
RA_OF_ASC_NODE = 255.2121
ARG_OF_PERICENTER = 274.4201
MEAN_ANOMALY   = 85.6429

EPHEMERIS_TYPE = 0
CLASSIFICATION_TYPE = U
NORAD_CAT_ID   = 66810
ELEMENT_SET_NO = 999
REV_AT_EPOCH   = 175
BSTAR          = -.18180189E-2
MEAN_MOTION_DOT = -.505822E-2
MEAN_MOTION_DDOT = 0

CCSDS_OMM_VERS = 2.0
CREATION_DATE  = 
ORIGINATOR     = 

OBJECT_NAME    = STARLINK-36045
OBJECT_ID      = 2025-278W
CENTER_NAME    = EARTH
REF_FRAME      = TEME
TIME_SYSTEM    = UTC
MEAN_ELEMENT_THEORY = SGP/SGP4

EPOCH          = 2025-12-12T05:23:11.380128
MEAN_MOTION    = 15.88963979
ECCENTRICITY   = .00022051
INCLINATION    = 42.9974
RA_OF_ASC_NODE = 255.2078
ARG_OF_PERICENTER = 339.2321
MEAN_ANOMALY   = 20.8464

EPHEMERIS_TYPE = 0
CLASSIFICATION_TYPE = U
NORAD_CAT_ID   = 66811
ELEMENT_SET_NO = 999
REV_AT_EPOCH   = 175
BSTAR          = -.14178977E-2
MEAN_MOTION_DOT = -.40078E-2
MEAN_MOTION_DDOT = 0

CCSDS_OMM_VERS = 2.0
CREATION_DATE  = 
ORIGINATOR     = 

OBJECT_NAME    = STARLINK-36054
OBJECT_ID      = 2025-278X
CENTER_NAME    = EARTH
REF_FRAME      = TEME
TIME_SYSTEM    = UTC
MEAN_ELEMENT_THEORY = SGP/SGP4

EPOCH          = 2025-12-12T05:22:03.449856
MEAN_MOTION    = 15.88954526
ECCENTRICITY   = .00023043
INCLINATION    = 42.9975
RA_OF_ASC_NODE = 255.2010
ARG_OF_PERICENTER = 269.7066
MEAN_ANOMALY   = 90.3544

EPHEMERIS_TYPE = 0
CLASSIFICATION_TYPE = U
NORAD_CAT_ID   = 66812
ELEMENT_SET_NO = 999
REV_AT_EPOCH   = 175
BSTAR          = -.18403907E-2
MEAN_MOTION_DOT = -.513387E-2
MEAN_MOTION_DDOT = 0

CCSDS_OMM_VERS = 2.0
CREATION_DATE  = 
ORIGINATOR     = 

OBJECT_NAME    = STARLINK-36042
OBJECT_ID      = 2025-278Y
CENTER_NAME    = EARTH
REF_FRAME      = TEME
TIME_SYSTEM    = UTC
MEAN_ELEMENT_THEORY = SGP/SGP4

EPOCH          = 2025-12-12T05:21:32.806368
MEAN_MOTION    = 15.89186521
ECCENTRICITY   = .00024837
INCLINATION    = 42.9974
RA_OF_ASC_NODE = 255.1984
ARG_OF_PERICENTER = 266.4093
MEAN_ANOMALY   = 93.6497

EPHEMERIS_TYPE = 0
CLASSIFICATION_TYPE = U
NORAD_CAT_ID   = 66813
ELEMENT_SET_NO = 999
REV_AT_EPOCH   = 175
BSTAR          = -.61702862E-3
MEAN_MOTION_DOT = -.181064E-2
MEAN_MOTION_DDOT = 0

CCSDS_OMM_VERS = 2.0
CREATION_DATE  = 
ORIGINATOR     = 

OBJECT_NAME    = STARLINK-35984
OBJECT_ID      = 2025-278Z
CENTER_NAME    = EARTH
REF_FRAME      = TEME
TIME_SYSTEM    = UTC
MEAN_ELEMENT_THEORY = SGP/SGP4

EPOCH          = 2025-12-12T05:17:39.039072
MEAN_MOTION    = 15.89263924
ECCENTRICITY   = .00022268
INCLINATION    = 42.9971
RA_OF_ASC_NODE = 255.1754
ARG_OF_PERICENTER = 272.7868
MEAN_ANOMALY   = 87.2751

EPHEMERIS_TYPE = 0
CLASSIFICATION_TYPE = U
NORAD_CAT_ID   = 66814
ELEMENT_SET_NO = 999
REV_AT_EPOCH   = 175
BSTAR          = -.78876214E-3
MEAN_MOTION_DOT = -.230906E-2
MEAN_MOTION_DDOT = 0

CCSDS_OMM_VERS = 2.0
CREATION_DATE  = 
ORIGINATOR     = 

OBJECT_NAME    = STARLINK-35985
OBJECT_ID      = 2025-278AA
CENTER_NAME    = EARTH
REF_FRAME      = TEME
TIME_SYSTEM    = UTC
MEAN_ELEMENT_THEORY = SGP/SGP4

EPOCH          = 2025-12-12T05:18:09.877824
MEAN_MOTION    = 15.89266535
ECCENTRICITY   = .00024111
INCLINATION    = 42.9977
RA_OF_ASC_NODE = 255.1773
ARG_OF_PERICENTER = 272.8326
MEAN_ANOMALY   = 87.2272

EPHEMERIS_TYPE = 0
CLASSIFICATION_TYPE = U
NORAD_CAT_ID   = 66815
ELEMENT_SET_NO = 999
REV_AT_EPOCH   = 296
BSTAR          = -.59966213E-3
MEAN_MOTION_DOT = -.176778E-2
MEAN_MOTION_DDOT = 0

CCSDS_OMM_VERS = 2.0
CREATION_DATE  = 
ORIGINATOR     = 

OBJECT_NAME    = STARLINK-36098
OBJECT_ID      = 2025-278AB
CENTER_NAME    = EARTH
REF_FRAME      = TEME
TIME_SYSTEM    = UTC
MEAN_ELEMENT_THEORY = SGP/SGP4

EPOCH          = 2025-12-12T05:20:58.630848
MEAN_MOTION    = 15.89014598
ECCENTRICITY   = .00022526
INCLINATION    = 42.9975
RA_OF_ASC_NODE = 255.1949
ARG_OF_PERICENTER = 268.1474
MEAN_ANOMALY   = 91.9142

EPHEMERIS_TYPE = 0
CLASSIFICATION_TYPE = U
NORAD_CAT_ID   = 66816
ELEMENT_SET_NO = 999
REV_AT_EPOCH   = 175
BSTAR          = -.18351842E-2
MEAN_MOTION_DOT = -.513479E-2
MEAN_MOTION_DDOT = 0

CCSDS_OMM_VERS = 2.0
CREATION_DATE  = 
ORIGINATOR     = 

OBJECT_NAME    = STARLINK-35995
OBJECT_ID      = 2025-278AC
CENTER_NAME    = EARTH
REF_FRAME      = TEME
TIME_SYSTEM    = UTC
MEAN_ELEMENT_THEORY = SGP/SGP4

EPOCH          = 2025-12-12T05:19:39.526464
MEAN_MOTION    = 15.89240473
ECCENTRICITY   = .00024794
INCLINATION    = 42.9972
RA_OF_ASC_NODE = 255.1877
ARG_OF_PERICENTER = 271.4990
MEAN_ANOMALY   = 88.5600

EPHEMERIS_TYPE = 0
CLASSIFICATION_TYPE = U
NORAD_CAT_ID   = 66817
ELEMENT_SET_NO = 999
REV_AT_EPOCH   = 175
BSTAR          = -.70951273E-3
MEAN_MOTION_DOT = -.20806E-2
MEAN_MOTION_DDOT = 0

CCSDS_OMM_VERS = 2.0
CREATION_DATE  = 
ORIGINATOR     = 

OBJECT_NAME    = STARLINK-35994
OBJECT_ID      = 2025-278AD
CENTER_NAME    = EARTH
REF_FRAME      = TEME
TIME_SYSTEM    = UTC
MEAN_ELEMENT_THEORY = SGP/SGP4

EPOCH          = 2025-12-12T05:20:13.787520
MEAN_MOTION    = 15.89229288
ECCENTRICITY   = .00024027
INCLINATION    = 42.9975
RA_OF_ASC_NODE = 255.1910
ARG_OF_PERICENTER = 269.4624
MEAN_ANOMALY   = 90.5975

EPHEMERIS_TYPE = 0
CLASSIFICATION_TYPE = U
NORAD_CAT_ID   = 66818
ELEMENT_SET_NO = 999
REV_AT_EPOCH   = 175
BSTAR          = -.61459231E-3
MEAN_MOTION_DOT = -.180744E-2
MEAN_MOTION_DDOT = 0

CCSDS_OMM_VERS = 2.0
CREATION_DATE  = 
ORIGINATOR     = 

OBJECT_NAME    = STARLINK-35989
OBJECT_ID      = 2025-278AE
CENTER_NAME    = EARTH
REF_FRAME      = TEME
TIME_SYSTEM    = UTC
MEAN_ELEMENT_THEORY = SGP/SGP4

EPOCH          = 2025-12-12T05:19:05.058048
MEAN_MOTION    = 15.89257275
ECCENTRICITY   = .00022719
INCLINATION    = 42.9975
RA_OF_ASC_NODE = 255.1840
ARG_OF_PERICENTER = 273.9157
MEAN_ANOMALY   = 86.1458

EPHEMERIS_TYPE = 0
CLASSIFICATION_TYPE = U
NORAD_CAT_ID   = 66819
ELEMENT_SET_NO = 999
REV_AT_EPOCH   = 175
BSTAR          = -.74594376E-3
MEAN_MOTION_DOT = -.218629E-2
MEAN_MOTION_DDOT = 0

CCSDS_OMM_VERS = 2.0
CREATION_DATE  = 
ORIGINATOR     = 

OBJECT_NAME    = KOMPSAT-7
OBJECT_ID      = 2025-279A
CENTER_NAME    = EARTH
REF_FRAME      = TEME
TIME_SYSTEM    = UTC
MEAN_ELEMENT_THEORY = SGP/SGP4

EPOCH          = 2025-12-12T06:36:15.621984
MEAN_MOTION    = 14.98947437
ECCENTRICITY   = .00086823
INCLINATION    = 97.6409
RA_OF_ASC_NODE = 292.1508
ARG_OF_PERICENTER = 227.0604
MEAN_ANOMALY   = 132.9891

EPHEMERIS_TYPE = 0
CLASSIFICATION_TYPE = U
NORAD_CAT_ID   = 66820
ELEMENT_SET_NO = 999
REV_AT_EPOCH   = 158
BSTAR          = .37221835E-3
MEAN_MOTION_DOT = .4449E-4
MEAN_MOTION_DDOT = 0

CCSDS_OMM_VERS = 2.0
CREATION_DATE  = 
ORIGINATOR     = 

OBJECT_NAME    = STARLINK-35966
OBJECT_ID      = 2025-280A
CENTER_NAME    = EARTH
REF_FRAME      = TEME
TIME_SYSTEM    = UTC
MEAN_ELEMENT_THEORY = SGP/SGP4

EPOCH          = 2025-12-12T06:00:00.999648
MEAN_MOTION    = 15.81875893
ECCENTRICITY   = .00037251
INCLINATION    = 69.9931
RA_OF_ASC_NODE = 200.2407
ARG_OF_PERICENTER = 279.5466
MEAN_ANOMALY   = 178.7441

EPHEMERIS_TYPE = 0
CLASSIFICATION_TYPE = U
NORAD_CAT_ID   = 66821
ELEMENT_SET_NO = 999
REV_AT_EPOCH   = 282
BSTAR          = -.94710787E-2
MEAN_MOTION_DOT = -.1672446E-1
MEAN_MOTION_DDOT = 0

CCSDS_OMM_VERS = 2.0
CREATION_DATE  = 
ORIGINATOR     = 

OBJECT_NAME    = STARLINK-35958
OBJECT_ID      = 2025-280B
CENTER_NAME    = EARTH
REF_FRAME      = TEME
TIME_SYSTEM    = UTC
MEAN_ELEMENT_THEORY = SGP/SGP4

EPOCH          = 2025-12-12T06:00:00.999648
MEAN_MOTION    = 15.81904557
ECCENTRICITY   = .00038485
INCLINATION    = 69.9931
RA_OF_ASC_NODE = 200.2388
ARG_OF_PERICENTER = 275.7442
MEAN_ANOMALY   = 184.4238

EPHEMERIS_TYPE = 0
CLASSIFICATION_TYPE = U
NORAD_CAT_ID   = 66822
ELEMENT_SET_NO = 999
REV_AT_EPOCH   = 282
BSTAR          = -.95526758E-2
MEAN_MOTION_DOT = -.1687025E-1
MEAN_MOTION_DDOT = 0

CCSDS_OMM_VERS = 2.0
CREATION_DATE  = 
ORIGINATOR     = 

OBJECT_NAME    = STARLINK-35957
OBJECT_ID      = 2025-280C
CENTER_NAME    = EARTH
REF_FRAME      = TEME
TIME_SYSTEM    = UTC
MEAN_ELEMENT_THEORY = SGP/SGP4

EPOCH          = 2025-12-12T06:00:00.999648
MEAN_MOTION    = 15.81925691
ECCENTRICITY   = .00037516
INCLINATION    = 69.9928
RA_OF_ASC_NODE = 200.2363
ARG_OF_PERICENTER = 277.0059
MEAN_ANOMALY   = 185.1188

EPHEMERIS_TYPE = 0
CLASSIFICATION_TYPE = U
NORAD_CAT_ID   = 66823
ELEMENT_SET_NO = 999
REV_AT_EPOCH   = 282
BSTAR          = -.96456948E-2
MEAN_MOTION_DOT = -.1702559E-1
MEAN_MOTION_DDOT = 0

CCSDS_OMM_VERS = 2.0
CREATION_DATE  = 
ORIGINATOR     = 

OBJECT_NAME    = STARLINK-35896
OBJECT_ID      = 2025-280D
CENTER_NAME    = EARTH
REF_FRAME      = TEME
TIME_SYSTEM    = UTC
MEAN_ELEMENT_THEORY = SGP/SGP4

EPOCH          = 2025-12-12T06:00:00.999648
MEAN_MOTION    = 15.81934315
ECCENTRICITY   = .00035699
INCLINATION    = 69.9928
RA_OF_ASC_NODE = 200.2337
ARG_OF_PERICENTER = 271.8253
MEAN_ANOMALY   = 192.3380

EPHEMERIS_TYPE = 0
CLASSIFICATION_TYPE = U
NORAD_CAT_ID   = 66824
ELEMENT_SET_NO = 999
REV_AT_EPOCH   = 282
BSTAR          = -.96802984E-2
MEAN_MOTION_DOT = -.1708212E-1
MEAN_MOTION_DDOT = 0

